[
    {
        "Altitude(m)": 717195.4536205626,
        "Argument of Periapsis(deg)": 0.005695060593313534,
        "Eccentricity": 0.0,
        "Inclination(deg)": 45.0,
        "Latitude(deg)": -43.49327210980298,
        "Longitude(deg)": -156.04574518420858,
        "Mean Anomaly(deg)": 283.9484083237404,
        "RAAN(deg)": 14.994624029270897,
        "Satellite Name": "Constellation 1 83",
        "Satellite Number": 83,
        "Semi-Major Axis(m)": 7083131.272910544,
        "Time(s)": 95
    },
    {
        "Altitude(m)": 717189.5648179842,
        "Argument of Periapsis(deg)": 0.00575500859955894,
        "Eccentricity": 0.0,
        "Inclination(deg)": 45.0,
        "Latitude(deg)": -43.47904683525309,
        "Longitude(deg)": -155.9689242955399,
        "Mean Anomaly(deg)": 284.00910946399034,
        "RAAN(deg)": 14.994567440105328,
        "Satellite Name": "Constellation 1 83",
        "Satellite Number": 83,
        "Semi-Major Axis(m)": 7083131.272910544,
        "Time(s)": 96
    },
    {
        "Altitude(m)": 717183.6521584609,
        "Argument of Periapsis(deg)": 0.005814956605804345,
        "Eccentricity": 0.0,
        "Inclination(deg)": 45.0,
        "Latitude(deg)": -43.46476428471732,
        "Longitude(deg)": -155.89214119055404,
        "Mean Anomaly(deg)": 284.0698106042402,
        "RAAN(deg)": 14.994510850939758,
        "Satellite Name": "Constellation 1 83",
        "Satellite Number": 83,
        "Semi-Major Axis(m)": 7083131.272910544,
        "Time(s)": 97
    },
    {
        "Altitude(m)": 717177.715663737,
        "Argument of Periapsis(deg)": 0.00587490461204975,
        "Eccentricity": 0.0,
        "Inclination(deg)": 45.0,
        "Latitude(deg)": -43.45042451298675,
        "Longitude(deg)": -155.81539615275207,
        "Mean Anomaly(deg)": 284.1305117444901,
        "RAAN(deg)": 14.99445426177419,
        "Satellite Name": "Constellation 1 83",
        "Satellite Number": 83,
        "Semi-Major Axis(m)": 7083131.272910544,
        "Time(s)": 98
    },
    {
        "Altitude(m)": 717171.7553556388,
        "Argument of Periapsis(deg)": 0.005934852618295156,
        "Eccentricity": 0.0,
        "Inclination(deg)": 45.0,
        "Latitude(deg)": -43.4360275750063,
        "Longitude(deg)": -155.73868929699117,
        "Mean Anomaly(deg)": 284.19121288473997,
        "RAAN(deg)": 14.994397672608617,
        "Satellite Name": "Constellation 1 83",
        "Satellite Number": 83,
        "Semi-Major Axis(m)": 7083131.272910544,
        "Time(s)": 99
    },
    {
        "Altitude(m)": 717165.7712560911,
        "Argument of Periapsis(deg)": 0.005994800624540561,
        "Eccentricity": 0.0,
        "Inclination(deg)": 45.0,
        "Latitude(deg)": -43.42157352587353,
        "Longitude(deg)": -155.66202073758237,
        "Mean Anomaly(deg)": 284.25191402498996,
        "RAAN(deg)": 14.99434108344305,
        "Satellite Name": "Constellation 1 83",
        "Satellite Number": 83,
        "Semi-Major Axis(m)": 7083131.272910544,
        "Time(s)": 100
    },
    {
        "Altitude(m)": 717159.7633870937,
        "Argument of Periapsis(deg)": 0.006054748630785968,
        "Eccentricity": 0.0,
        "Inclination(deg)": 45.0,
        "Latitude(deg)": -43.40706242083787,
        "Longitude(deg)": -155.5853905882894,
        "Mean Anomaly(deg)": 284.3126151652398,
        "RAAN(deg)": 14.994284494277482,
        "Satellite Name": "Constellation 1 83",
        "Satellite Number": 83,
        "Semi-Major Axis(m)": 7083131.272910544,
        "Time(s)": 101
    },
    {
        "Altitude(m)": 717153.7317707384,
        "Argument of Periapsis(deg)": 0.006114696637031373,
        "Eccentricity": 0.0,
        "Inclination(deg)": 45.0,
        "Latitude(deg)": -43.392494315299544,
        "Longitude(deg)": -155.50879896232783,
        "Mean Anomaly(deg)": 284.37331630548965,
        "RAAN(deg)": 14.99422790511191,
        "Satellite Name": "Constellation 1 83",
        "Satellite Number": 83,
        "Semi-Major Axis(m)": 7083131.272910544,
        "Time(s)": 102
    },
    {
        "Altitude(m)": 717147.6764292106,
        "Argument of Periapsis(deg)": 0.006174644643276778,
        "Eccentricity": 0.0,
        "Inclination(deg)": 45.0,
        "Latitude(deg)": -43.37786926480883,
        "Longitude(deg)": -155.43224597236528,
        "Mean Anomaly(deg)": 284.4340174457396,
        "RAAN(deg)": 14.99417131594634,
        "Satellite Name": "Constellation 1 83",
        "Satellite Number": 83,
        "Semi-Major Axis(m)": 7083131.272910544,
        "Time(s)": 103
    },
    {
        "Altitude(m)": 717141.5973847676,
        "Argument of Periapsis(deg)": 0.006234592649522184,
        "Eccentricity": 0.0,
        "Inclination(deg)": 45.0,
        "Latitude(deg)": -43.363187325064686,
        "Longitude(deg)": -155.3557318986169,
        "Mean Anomaly(deg)": 284.4947185859895,
        "RAAN(deg)": 14.994114726780772,
        "Satellite Name": "Constellation 1 83",
        "Satellite Number": 83,
        "Semi-Major Axis(m)": 7083131.272910544,
        "Time(s)": 104
    },
    {
        "Altitude(m)": 717135.4946597607,
        "Argument of Periapsis(deg)": 0.00629454065576759,
        "Eccentricity": 0.0,
        "Inclination(deg)": 45.0,
        "Latitude(deg)": -43.34844855191528,
        "Longitude(deg)": -155.2792565164576,
        "Mean Anomaly(deg)": 284.5554197262394,
        "RAAN(deg)": 14.994058137615202,
        "Satellite Name": "Constellation 1 83",
        "Satellite Number": 83,
        "Semi-Major Axis(m)": 7083131.272910544,
        "Time(s)": 105
    },
    {
        "Altitude(m)": 717129.3682766326,
        "Argument of Periapsis(deg)": 0.006354488662012995,
        "Eccentricity": 0.0,
        "Inclination(deg)": 45.0,
        "Latitude(deg)": -43.33365300135506,
        "Longitude(deg)": -155.20282010500344,
        "Mean Anomaly(deg)": 284.61612086648927,
        "RAAN(deg)": 14.994001548449633,
        "Satellite Name": "Constellation 1 83",
        "Satellite Number": 83,
        "Semi-Major Axis(m)": 7083131.272910544,
        "Time(s)": 106
    },
    {
        "Altitude(m)": 717123.218257902,
        "Argument of Periapsis(deg)": 0.006414436668258401,
        "Eccentricity": 0.0,
        "Inclination(deg)": 45.0,
        "Latitude(deg)": -43.3188007295252,
        "Longitude(deg)": -155.12642277472276,
        "Mean Anomaly(deg)": 284.6768220067392,
        "RAAN(deg)": 14.993944959284063,
        "Satellite Name": "Constellation 1 83",
        "Satellite Number": 83,
        "Semi-Major Axis(m)": 7083131.272910544,
        "Time(s)": 107
    },
    {
        "Altitude(m)": 717117.0446261865,
        "Argument of Periapsis(deg)": 0.0064743846745038075,
        "Eccentricity": 0.0,
        "Inclination(deg)": 45.0,
        "Latitude(deg)": -43.30389179271228,
        "Longitude(deg)": -155.05006463553295,
        "Mean Anomaly(deg)": 284.73752314698913,
        "RAAN(deg)": 14.993888370118494,
        "Satellite Name": "Constellation 1 83",
        "Satellite Number": 83,
        "Semi-Major Axis(m)": 7083131.272910544,
        "Time(s)": 108
    },
    {
        "Altitude(m)": 717110.8474041756,
        "Argument of Periapsis(deg)": 0.0065343326807492125,
        "Eccentricity": 0.0,
        "Inclination(deg)": 45.0,
        "Latitude(deg)": -43.28892624734758,
        "Longitude(deg)": -154.97374579680016,
        "Mean Anomaly(deg)": 284.798224287239,
        "RAAN(deg)": 14.993831780952926,
        "Satellite Name": "Constellation 1 83",
        "Satellite Number": 83,
        "Semi-Major Axis(m)": 7083131.272910544,
        "Time(s)": 109
    },
    {
        "Altitude(m)": 717104.6266146515,
        "Argument of Periapsis(deg)": 0.0065942806869946176,
        "Eccentricity": 0.0,
        "Inclination(deg)": 45.0,
        "Latitude(deg)": -43.273904150006004,
        "Longitude(deg)": -154.89746636733864,
        "Mean Anomaly(deg)": 284.8589254274889,
        "RAAN(deg)": 14.993775191787355,
        "Satellite Name": "Constellation 1 83",
        "Satellite Number": 83,
        "Semi-Major Axis(m)": 7083131.272910544,
        "Time(s)": 110
    },
    {
        "Altitude(m)": 717098.3822804905,
        "Argument of Periapsis(deg)": 0.006654228693240024,
        "Eccentricity": 0.0,
        "Inclination(deg)": 45.0,
        "Latitude(deg)": -43.25882555740488,
        "Longitude(deg)": -154.82122662350716,
        "Mean Anomaly(deg)": 284.91962656773876,
        "RAAN(deg)": 14.993718602621787,
        "Satellite Name": "Constellation 1 83",
        "Satellite Number": 83,
        "Semi-Major Axis(m)": 7083131.272910544,
        "Time(s)": 111
    },
    {
        "Altitude(m)": 717092.1144246395,
        "Argument of Periapsis(deg)": 0.006714176699485429,
        "Eccentricity": 0.0,
        "Inclination(deg)": 45.0,
        "Latitude(deg)": -43.243690526404336,
        "Longitude(deg)": -154.7450263368206,
        "Mean Anomaly(deg)": 284.98032770798875,
        "RAAN(deg)": 14.993662013456214,
        "Satellite Name": "Constellation 1 83",
        "Satellite Number": 83,
        "Semi-Major Axis(m)": 7083131.272910544,
        "Time(s)": 112
    },
    {
        "Altitude(m)": 717085.823070138,
        "Argument of Periapsis(deg)": 0.006774124705730835,
        "Eccentricity": 0.0,
        "Inclination(deg)": 45.0,
        "Latitude(deg)": -43.228499114004684,
        "Longitude(deg)": -154.66886578253218,
        "Mean Anomaly(deg)": 285.04102884823857,
        "RAAN(deg)": 14.993605424290646,
        "Satellite Name": "Constellation 1 83",
        "Satellite Number": 83,
        "Semi-Major Axis(m)": 7083131.272910544,
        "Time(s)": 113
    }
]